CZ-2C R/B               
1 54039U 22132E   26050.93509395  .00036115  00000+0  43917-3 0  9999
2 54039  97.2959  53.7371 0020071 149.0606 211.1838 15.60227388187604
GSLV R/B                
1 54149U 22138AN  26050.86947169  .00003623  00000+0  31429-3 0  9997
2 54149  87.3881 172.3250 0020414 210.9359 149.0671 14.96630615181267
XRISM                   
1 57800U 23137A   26050.34680994  .00005086  00000+0  28918-3 0  9991
2 57800  31.0030  42.2797 0008309 216.4510 143.5563 15.11260329135016
ACS3                    
1 59588U 24077B   26050.85152134  .00015424  00000+0  12651-1 0  9998
2 59588  97.2171 355.9744 0049201 128.4585 232.1009 13.88807433 91721
SZ-21 MODULE            
1 66515U 25246C   26050.79163530  .00033426  00000+0  30543-3 0  9994
2 66515  41.4758 313.4169 0001778 294.9918  65.0739 15.67126682 15264
